{
  "norad_id": 66523,
  "name": "STARLINK-35969",
  "history": [
    {
      "epoch": "2026-03-28T21:50:30.576768",
      "apogee_km": 483.6819896126326,
      "perigee_km": 482.4099262922282,
      "latitude_deg": 34.056118328257796,
      "longitude_deg": -160.33269247994758,
      "semi_major_axis_km": 6861.18295795243,
      "eccentricity": 9.27e-05,
      "inclination_deg": 42.9971,
      "raan_deg": 169.3235,
      "arg_perigee_deg": 297.4949,
      "mean_anomaly_deg": 62.5808,
      "mean_motion_rev_day": 15.27581048
    }
  ]
}